{
    "links": {
        "self": "http://www.neowsapp.com/rest/v1/neo/3774004?api_key=iIulBulltgU6a56xZRHN4H3l9WmuAYTsLGpBGhQ2"
    },
    "id": "3774004",
    "neo_reference_id": "3774004",
    "name": "(2017 HW)",
    "designation": "2017 HW",
    "nasa_jpl_url": "http://ssd.jpl.nasa.gov/sbdb.cgi?sstr=3774004",
    "absolute_magnitude_h": 27.3,
    "estimated_diameter": {
        "kilometers": {
            "estimated_diameter_min": 0.0092162655,
            "estimated_diameter_max": 0.0206081961
        },
        "meters": {
            "estimated_diameter_min": 9.216265485,
            "estimated_diameter_max": 20.6081961232
        },
        "miles": {
            "estimated_diameter_min": 0.0057267201,
            "estimated_diameter_max": 0.0128053354
        },
        "feet": {
            "estimated_diameter_min": 30.2370924539,
            "estimated_diameter_max": 67.6121941689
        }
    },
    "is_potentially_hazardous_asteroid": false,
    "close_approach_data": [
        {
            "close_approach_date": "2011-05-12",
            "close_approach_date_full": "2011-May-12 23:07",
            "epoch_date_close_approach": 1305241620000,
            "relative_velocity": {
                "kilometers_per_second": "7.4807116776",
                "kilometers_per_hour": "26930.5620392807",
                "miles_per_hour": "16733.6039515741"
            },
            "miss_distance": {
                "astronomical": "1.3599112389",
                "lunar": "529.0054719321",
                "kilometers": "203439824.728501143",
                "miles": "126411645.3004080534"
            },
            "orbiting_body": "Juptr"
        },
        {
            "close_approach_date": "2017-04-18",
            "close_approach_date_full": "2017-Apr-18 11:47",
            "epoch_date_close_approach": 1492516020000,
            "relative_velocity": {
                "kilometers_per_second": "9.5029260069",
                "kilometers_per_hour": "34210.5336247423",
                "miles_per_hour": "21257.0951847739"
            },
            "miss_distance": {
                "astronomical": "0.0245135532",
                "lunar": "9.5357721948",
                "kilometers": "3667175.344851684",
                "miles": "2278677.0956298792"
            },
            "orbiting_body": "Earth"
        },
        {
            "close_approach_date": "2023-04-21",
            "close_approach_date_full": "2023-Apr-21 21:21",
            "epoch_date_close_approach": 1682112060000,
            "relative_velocity": {
                "kilometers_per_second": "6.2847024799",
                "kilometers_per_hour": "22624.928927491",
                "miles_per_hour": "14058.2509771957"
            },
            "miss_distance": {
                "astronomical": "1.0821284108",
                "lunar": "420.9479518012",
                "kilometers": "161884105.322164996",
                "miles": "100590118.6214131048"
            },
            "orbiting_body": "Juptr"
        },
        {
            "close_approach_date": "2125-04-01",
            "close_approach_date_full": "2125-Apr-01 21:48",
            "epoch_date_close_approach": 4899217680000,
            "relative_velocity": {
                "kilometers_per_second": "10.4594451668",
                "kilometers_per_hour": "37654.0026006067",
                "miles_per_hour": "23396.7328936937"
            },
            "miss_distance": {
                "astronomical": "0.2255610012",
                "lunar": "87.7432294668",
                "kilometers": "33743445.334587444",
                "miles": "20967204.6687129672"
            },
            "orbiting_body": "Earth"
        }
    ],
    "orbital_data": {
        "orbit_id": "2",
        "orbit_determination_date": "2017-04-22 06:18:36",
        "first_observation_date": "2017-04-17",
        "last_observation_date": "2017-04-21",
        "data_arc_in_days": 4,
        "observations_used": 22,
        "orbit_uncertainty": "8",
        "minimum_orbit_intersection": ".0239236",
        "jupiter_tisserand_invariant": "3.096",
        "epoch_osculation": "2457861.5",
        "eccentricity": ".609079876210314",
        "semi_major_axis": "2.619779332102226",
        "inclination": "9.728964854244827",
        "ascending_node_longitude": "31.30878679372537",
        "orbital_period": "1548.800550249271",
        "perihelion_distance": "1.024124460807063",
        "perihelion_argument": "170.2819730827745",
        "aphelion_distance": "4.215434203397388",
        "perihelion_time": "2457856.201245933227",
        "mean_anomaly": "1.231631447787948",
        "mean_motion": ".2324379339496361",
        "equinox": "J2000",
        "orbit_class": {
            "orbit_class_type": "AMO",
            "orbit_class_description": "Near-Earth asteroid orbits similar to that of 1221 Amor",
            "orbit_class_range": "1.017 AU < q (perihelion) < 1.3 AU"
        }
    },
    "is_sentry_object": false
}